ONEWEB-0674             
1 55833U 23029AP  25266.76832499 -.00000081  00000+0 -25225-3 0  9998
2 55833  87.9079 342.7892 0001580  84.5653 275.5657 13.14501642124412
ONEWEB-0675             
1 55834U 23029AQ  25265.80141009 -.00000096  00000+0 -27294-3 0  9997
2 55834  87.9282 358.1702 0002070 107.4716 252.6643 13.19725441123656
ONEWEB-0720             
1 55835U 23029AR  25266.77912741  .00000101  00000+0  22012-3 0  9992
2 55835  87.9285 357.9731 0001430 107.3190 252.8100 13.19726810123700
ONEWEB-0537             
1 56046U 23043A   25266.97725580  .00000073  00000+0  15728-3 0  9992
2 56046  87.8984 281.8161 0002057  94.4080 265.7286 13.16593735123930
ONEWEB-0538             
1 56047U 23043B   25266.59091289  .00000056  00000+0  11193-3 0  9996
2 56047  87.8970 281.9043 0001892 100.2795 259.8549 13.16595196123895
ONEWEB-0546             
1 56048U 23043C   25266.80625868  .00000130  00000+0  30589-3 0  9990
2 56048  87.8980 281.8445 0002591  92.8305 267.3122 13.16595140123915
ONEWEB-0547             
1 56049U 23043D   25266.79812545  .00000081  00000+0  16364-3 0  9999
2 56049  87.9186 297.1333 0001789  97.7404 262.3933 13.21825712123038
ONEWEB-0548             
1 56050U 23043E   25266.75557632 -.00000010  00000+0 -59219-4 0  9991
2 56050  87.8961 281.8756 0001826  75.9653 284.1681 13.16596721123902
